CZ-4B R/B               
1 28059U 03049C   17281.36517556  .00000013  00000-0  15264-4 0  9993
2 28059  98.5440 169.4677 0048954 262.0323 229.7326 14.52500927740113
CZ-2C R/B               
1 28222U 04012C   17281.49080104  .00000681  00000-0  45518-4 0  9990
2 28222  97.5383 235.9357 0048784 155.5134 325.3455 15.09403676737704
SL-16 R/B               
1 28353U 04021B   17281.24976524  .00000312  00000-0  18857-3 0  9994
2 28353  71.0011 201.3518 0004427   4.8589 355.2575 14.14200551688135
CZ-2C R/B               
1 28480U 04046B   17281.30383361  .00000043  00000-0  32526-4 0  9991
2 28480  98.1955  10.2087 0140887 250.5806 144.6854 14.25650833670331
ARIANE 5 R/B            
1 28499U 04049H   17281.24015021  .00000139  00000-0  24644-4 0  9990
2 28499  98.0737   4.8841 0091777 209.8407 207.6779 14.79846784690678
CZ-2D R/B               
1 28738U 05024B   17281.49272718  .00000676  00000-0  43893-4 0  9998
2 28738  97.4864 316.0902 0011552 342.1999  17.8825 15.11292355672921
SUZAKU (ASTRO-EII)      
1 28773U 05025A   17281.44644213  .00001657  00000-0  79545-4 0  9999
2 28773  31.3827 281.8413 0004536  44.0312 316.0696 15.16085875674578
ALOS (DAICHI)           
1 28931U 06002A   17281.58313400  .00000302  00000-0  68359-4 0  9994
2 28931  97.8369 303.2288 0001345  45.2987 314.8318 14.62403518624038
H-2A R/B                
1 28932U 06002B   17281.54612131  .00000667  00000-0  68350-4 0  9999
2 28932  98.2079 209.0066 0088623 300.6086 164.2746 14.91502158634700
AKARI (ASTRO-F)         
1 28939U 06005A   17281.59020341  .00004225  00000-0  12822-3 0  9996
2 28939  98.2403 135.0023 0105606 152.3394 208.3518 15.29398636630422
RESURS-DK 1             
1 29228U 06021A   17281.57463432  .00000218  00000-0  23913-4 0  9998
2 29228  69.9356 169.5866 0005042 205.5640 154.5272 15.02219863625126
GENESIS 1               
1 29252U 06029A   17281.48472029  .00001046  00000-0  62660-4 0  9997
2 29252  64.5030 275.4419 0026611 316.6715  43.2315 15.16967449618934
CZ-4B R/B               
1 29507U 06046C   17281.13245697 -.00000496  00000-0 -33565-4 0  9992
2 29507  97.7888 288.8061 0050419 218.9893 140.7691 15.00161750597920
CZ-2C R/B               
1 31114U 07010B   17281.35050365  .00000008  00000-0  23051-4 0  9997
2 31114  98.3852 177.8944 0058623 246.7652 112.7345 14.19253358543559
COSMO-SKYMED 1          
1 31598U 07023A   17281.52371829 -.00000216  00000-0 -20620-4 0  9999
2 31598  97.8883 103.6012 0001310  85.4957 274.6433 14.82151452559233
GENESIS 2               
1 31789U 07028A   17281.51813110  .00000563  00000-0  39320-4 0  9999
2 31789  64.5037 313.6805 0017321 215.5220 144.4750 15.16239343566090
COSMOS 2428             
1 31792U 07029A   17281.52671536  .00000357  00000-0  21981-3 0  9993
2 31792  70.9304 174.2088 0006417 120.6900 239.4854 14.12348806529988
SL-16 R/B               
1 31793U 07029B   17281.58940132 -.00000125  00000-0 -40226-4 0  9990
2 31793  70.9758 150.9609 0002768 281.5716 111.5573 14.14392359530714
CZ-4B DEB               
1 33411U 08053D   17281.56841435  .00199235  00000-0  97581-3 0  9995
2 33411  97.3863 336.7753 0003830 203.1760 156.9336 15.81718538493957
KORONAS-FOTON           
1 33504U 09003A   17281.51622295  .00000680  00000-0  34550-4 0  9993
2 33504  82.4400 120.3691 0020994  79.2579 281.1015 15.14949960478533
TIANGONG 1              
1 37820U 11053A   17281.56526620  .00054395  91916-5  20599-3 0  9996
2 37820  42.7569 222.3464 0018614 172.5989 164.3870 15.87367113345923
H-2A R/B                
1 38341U 12025E   17281.27522260  .00000366  00000-0  50614-4 0  9999
2 38341  98.4282   4.5813 0056526 153.5590 206.8526 14.83638993291563
CUSAT 2 & FALCON 9 R/B  
1 39271U 13055G   17281.60448571  .00005846  00000-0  15070-3 0  9999
2 39271  80.9687 237.0135 0625941 226.3188 128.4497 14.38741823208927
ALOS-2                  
1 39766U 14029A   17281.53526223 -.00000142  00000-0 -12153-4 0  9999
2 39766  97.9226  17.2356 0001569  82.6141 277.5238 14.79470357182366
SL-27 R/B               
1 40354U 14084B   17281.57835136  .00001957  00000-0  51435-4 0  9994
2 40354  74.7395 259.0454 0040665 225.7718 134.0152 15.38499603156898
ASTRO-H (HITOMI)        
1 41337U 16012A   17281.57533759  .00000415  00000-0  27058-4 0  9997
2 41337  31.0051 120.2636 0012320  80.2485 279.9540 14.98366754 89944
TIANGONG-2              
1 41765U 16057A   17281.56017361  .00007962  00000-0  10380-3 0  9999
2 41765  42.7835  41.4176 0003971 305.7623 228.1079 15.59081838 60679
SHENZHOU-11 MODULE      
1 41868U 16061G   17281.55839269  .00013212  00000-0  12129-3 0  9994
2 41868  42.7962  32.1304 0004283 210.1034 262.6726 15.67595012 50726
TIANZHOU 1              
1 42684U 17021A   17264.10196765  .00025036  00000-0  31524-3 0  9994
2 42684  42.7846 145.1653 0002796 246.0577 114.0462 15.59122908 23989
